{"fetched_at":"2026-07-08T17:59:28.433Z","source":"https://celestrak.org/NORAD/elements/gp.php?GROUP=spire&FORMAT=JSON","constellation":"spire","records":[{"OBJECT_NAME":"LEMUR-2-LEIA-PHILIP","OBJECT_ID":"2025-052AN","EPOCH":"2026-07-07T12:26:50.658432","CLASSIFICATION_TYPE":"U","MEAN_MOTION":14.97376769,"ECCENTRICITY":0.00048895,"INCLINATION":97.6815,"RA_OF_ASC_NODE":80.1253,"ARG_OF_PERICENTER":138.7865,"MEAN_ANOMALY":221.3727,"EPHEMERIS_TYPE":0,"NORAD_CAT_ID":63246,"ELEMENT_SET_NO":999,"REV_AT_EPOCH":7171,"BSTAR":0.00017109045,"MEAN_MOTION_DOT":0.0000193,"MEAN_MOTION_DDOT":0},{"OBJECT_NAME":"LEMUR-2-LIA-MARTIN","OBJECT_ID":"2025-052AQ","EPOCH":"2026-07-08T12:26:25.295712","CLASSIFICATION_TYPE":"U","MEAN_MOTION":14.97990233,"ECCENTRICITY":0.0005348,"INCLINATION":97.6868,"RA_OF_ASC_NODE":81.6147,"ARG_OF_PERICENTER":106.5482,"MEAN_ANOMALY":253.6328,"EPHEMERIS_TYPE":0,"NORAD_CAT_ID":63248,"ELEMENT_SET_NO":999,"REV_AT_EPOCH":7187,"BSTAR":0.0003247,"MEAN_MOTION_DOT":0.00003776,"MEAN_MOTION_DDOT":0},{"OBJECT_NAME":"LEMUR-2-DELOITTE-1","OBJECT_ID":"2025-052BB","EPOCH":"2026-07-07T16:42:14.859648","CLASSIFICATION_TYPE":"U","MEAN_MOTION":14.97747072,"ECCENTRICITY":0.0002285,"INCLINATION":97.6883,"RA_OF_ASC_NODE":81.1366,"ARG_OF_PERICENTER":66.1516,"MEAN_ANOMALY":293.9945,"EPHEMERIS_TYPE":0,"NORAD_CAT_ID":63259,"ELEMENT_SET_NO":999,"REV_AT_EPOCH":7176,"BSTAR":0.00020879,"MEAN_MOTION_DOT":0.00002391,"MEAN_MOTION_DDOT":0},{"OBJECT_NAME":"LEMUR-2-EMERSONROSE","OBJECT_ID":"2025-052BD","EPOCH":"2026-07-08T10:50:41.160192","CLASSIFICATION_TYPE":"U","MEAN_MOTION":14.99248834,"ECCENTRICITY":0.0002788,"INCLINATION":97.6875,"RA_OF_ASC_NODE":82.4785,"ARG_OF_PERICENTER":71.9134,"MEAN_ANOMALY":288.2393,"EPHEMERIS_TYPE":0,"NORAD_CAT_ID":63261,"ELEMENT_SET_NO":999,"REV_AT_EPOCH":7192,"BSTAR":0.00025672,"MEAN_MOTION_DOT":0.00003072,"MEAN_MOTION_DDOT":0},{"OBJECT_NAME":"LEMUR-2-MARACHE-FRAN","OBJECT_ID":"2025-052BE","EPOCH":"2026-07-08T03:29:50.894880","CLASSIFICATION_TYPE":"U","MEAN_MOTION":15.00285042,"ECCENTRICITY":0.000453,"INCLINATION":97.6862,"RA_OF_ASC_NODE":82.5352,"ARG_OF_PERICENTER":284.8117,"MEAN_ANOMALY":75.2604,"EPHEMERIS_TYPE":0,"NORAD_CAT_ID":63262,"ELEMENT_SET_NO":999,"REV_AT_EPOCH":7190,"BSTAR":0.00017143,"MEAN_MOTION_DOT":0.00002088,"MEAN_MOTION_DDOT":0},{"OBJECT_NAME":"LEMUR-2-THEFALCONER","OBJECT_ID":"2025-052BG","EPOCH":"2026-07-08T12:39:11.566944","CLASSIFICATION_TYPE":"U","MEAN_MOTION":14.97541481,"ECCENTRICITY":0.0000822,"INCLINATION":97.6848,"RA_OF_ASC_NODE":81.5519,"ARG_OF_PERICENTER":25.1505,"MEAN_ANOMALY":334.9757,"EPHEMERIS_TYPE":0,"NORAD_CAT_ID":63264,"ELEMENT_SET_NO":999,"REV_AT_EPOCH":7188,"BSTAR":0.00022911,"MEAN_MOTION_DOT":0.00002615,"MEAN_MOTION_DDOT":0},{"OBJECT_NAME":"LEMUR-2-UNTITLED-SC","OBJECT_ID":"2025-061A","EPOCH":"2026-07-08T09:02:33.207072","CLASSIFICATION_TYPE":"U","MEAN_MOTION":15.13616918,"ECCENTRICITY":0.0018499,"INCLINATION":97.5647,"RA_OF_ASC_NODE":164.5866,"ARG_OF_PERICENTER":186.2347,"MEAN_ANOMALY":173.8657,"EPHEMERIS_TYPE":0,"NORAD_CAT_ID":63351,"ELEMENT_SET_NO":999,"REV_AT_EPOCH":7079,"BSTAR":0.000093739,"MEAN_MOTION_DOT":0.00001623,"MEAN_MOTION_DDOT":0},{"OBJECT_NAME":"LEMUR-2-ESPERANZA","OBJECT_ID":"2025-061B","EPOCH":"2026-07-08T10:02:55.301568","CLASSIFICATION_TYPE":"U","MEAN_MOTION":15.13725278,"ECCENTRICITY":0.0018109,"INCLINATION":97.5653,"RA_OF_ASC_NODE":164.7266,"ARG_OF_PERICENTER":185.5129,"MEAN_ANOMALY":174.5906,"EPHEMERIS_TYPE":0,"NORAD_CAT_ID":63352,"ELEMENT_SET_NO":999,"REV_AT_EPOCH":7080,"BSTAR":0.00016864,"MEAN_MOTION_DOT":0.00002982,"MEAN_MOTION_DDOT":0},{"OBJECT_NAME":"LEMUR-2-KREMPEL-BRO2","OBJECT_ID":"2025-061C","EPOCH":"2026-07-08T05:47:29.203872","CLASSIFICATION_TYPE":"U","MEAN_MOTION":15.14147403,"ECCENTRICITY":0.0019256,"INCLINATION":97.5701,"RA_OF_ASC_NODE":165.1108,"ARG_OF_PERICENTER":178.6796,"MEAN_ANOMALY":181.4489,"EPHEMERIS_TYPE":0,"NORAD_CAT_ID":63353,"ELEMENT_SET_NO":999,"REV_AT_EPOCH":7079,"BSTAR":0.00010191,"MEAN_MOTION_DOT":0.00001798,"MEAN_MOTION_DDOT":0},{"OBJECT_NAME":"LEMUR-2-THERMORAPTOR","OBJECT_ID":"2025-061D","EPOCH":"2026-07-08T08:30:21.475872","CLASSIFICATION_TYPE":"U","MEAN_MOTION":15.14230709,"ECCENTRICITY":0.0019042,"INCLINATION":97.5705,"RA_OF_ASC_NODE":165.303,"ARG_OF_PERICENTER":177.2592,"MEAN_ANOMALY":182.8747,"EPHEMERIS_TYPE":0,"NORAD_CAT_ID":63354,"ELEMENT_SET_NO":999,"REV_AT_EPOCH":7081,"BSTAR":0.00014033,"MEAN_MOTION_DOT":0.00002507,"MEAN_MOTION_DDOT":0},{"OBJECT_NAME":"LEMUR-2-NEUROSPICY","OBJECT_ID":"2025-061E","EPOCH":"2026-07-08T09:22:22.528128","CLASSIFICATION_TYPE":"U","MEAN_MOTION":15.14350648,"ECCENTRICITY":0.0016776,"INCLINATION":97.5634,"RA_OF_ASC_NODE":164.9487,"ARG_OF_PERICENTER":179.7872,"MEAN_ANOMALY":180.337,"EPHEMERIS_TYPE":0,"NORAD_CAT_ID":63355,"ELEMENT_SET_NO":999,"REV_AT_EPOCH":7082,"BSTAR":0.00011505,"MEAN_MOTION_DOT":0.00002048,"MEAN_MOTION_DDOT":0},{"OBJECT_NAME":"LEMUR-2-TILLINFINITY","OBJECT_ID":"2025-061F","EPOCH":"2026-07-08T08:26:16.590624","CLASSIFICATION_TYPE":"U","MEAN_MOTION":15.14932926,"ECCENTRICITY":0.0018376,"INCLINATION":97.5619,"RA_OF_ASC_NODE":165.2154,"ARG_OF_PERICENTER":168.7103,"MEAN_ANOMALY":191.4545,"EPHEMERIS_TYPE":0,"NORAD_CAT_ID":63356,"ELEMENT_SET_NO":999,"REV_AT_EPOCH":7084,"BSTAR":0.00014571,"MEAN_MOTION_DOT":0.00002658,"MEAN_MOTION_DDOT":0},{"OBJECT_NAME":"LEMUR-2-KREMPEL-BRO1","OBJECT_ID":"2025-061G","EPOCH":"2026-07-08T09:27:05.900256","CLASSIFICATION_TYPE":"U","MEAN_MOTION":15.14742004,"ECCENTRICITY":0.001902,"INCLINATION":97.5619,"RA_OF_ASC_NODE":165.1674,"ARG_OF_PERICENTER":169.7248,"MEAN_ANOMALY":190.4377,"EPHEMERIS_TYPE":0,"NORAD_CAT_ID":63357,"ELEMENT_SET_NO":999,"REV_AT_EPOCH":7084,"BSTAR":0.00011984,"MEAN_MOTION_DOT":0.00002163,"MEAN_MOTION_DDOT":0},{"OBJECT_NAME":"LEMUR-2-LANGER2SPACE","OBJECT_ID":"2025-061H","EPOCH":"2026-07-07T23:05:22.047936","CLASSIFICATION_TYPE":"U","MEAN_MOTION":15.14431885,"ECCENTRICITY":0.0016637,"INCLINATION":97.5622,"RA_OF_ASC_NODE":164.5436,"ARG_OF_PERICENTER":179.7779,"MEAN_ANOMALY":180.3463,"EPHEMERIS_TYPE":0,"NORAD_CAT_ID":63358,"ELEMENT_SET_NO":999,"REV_AT_EPOCH":7076,"BSTAR":0.00012498,"MEAN_MOTION_DOT":0.00002236,"MEAN_MOTION_DDOT":0},{"OBJECT_NAME":"LEMUR-2-BALTO","OBJECT_ID":"2025-052BH","EPOCH":"2026-07-08T12:43:51.462336","CLASSIFICATION_TYPE":"U","MEAN_MOTION":15.00323096,"ECCENTRICITY":0.0005529,"INCLINATION":97.6931,"RA_OF_ASC_NODE":82.8968,"ARG_OF_PERICENTER":354.4462,"MEAN_ANOMALY":5.6699,"EPHEMERIS_TYPE":0,"NORAD_CAT_ID":63395,"ELEMENT_SET_NO":999,"REV_AT_EPOCH":7196,"BSTAR":0.00028537,"MEAN_MOTION_DOT":0.0000352,"MEAN_MOTION_DDOT":0},{"OBJECT_NAME":"LEMUR-2-KRISH","OBJECT_ID":"2025-135AK","EPOCH":"2026-07-07T19:19:12.401760","CLASSIFICATION_TYPE":"U","MEAN_MOTION":14.96405512,"ECCENTRICITY":0.0001746,"INCLINATION":97.7759,"RA_OF_ASC_NODE":303.5424,"ARG_OF_PERICENTER":100.4811,"MEAN_ANOMALY":259.6607,"EPHEMERIS_TYPE":0,"NORAD_CAT_ID":64561,"ELEMENT_SET_NO":999,"REV_AT_EPOCH":5700,"BSTAR":0.00033367,"MEAN_MOTION_DOT":0.00003724,"MEAN_MOTION_DDOT":0}]}
